STARLINK-31742          
1 59499U 24071R   26068.13772591  .00000213  00000+0  17281-4 0  9995
2 59499  43.0036 342.6484 0000846 259.5431 100.5326 15.27533339108122
2025-155V               
1 64895U 25155V   26068.85787115  .00013705  00000+0  51002-3 0  9990
2 64895  97.4485  37.2490 0008035 152.8264 207.3397 15.27583301 65579
